{
  "type": "FeatureCollection",
  "features": [
    {
      "type": "Feature",
      "properties": {
        "norad_id": 39160,
        "name": "VNREDSAT 1",
        "group": "resource",
        "lat": -28.402257406160974,
        "lon": -140.93834664582937,
        "alt_km": 683.7738381528343,
        "timestamp": "2025-12-14T03:55:52.450255+00:00",
        "meta_object_name": "VNREDSAT 1",
        "meta_object_id": "2013-021B",
        "meta_epoch": "2025-12-13T07:18:38.000736",
        "meta_mean_motion": 14.64924843,
        "meta_eccentricity": 0.00012881,
        "meta_inclination": 97.937,
        "meta_ra_of_asc_node": 42.5592,
        "meta_arg_of_pericenter": 79.17,
        "meta_mean_anomaly": 280.9648,
        "meta_ephemeris_type": 0,
        "meta_classification_type": "U",
        "meta_norad_cat_id": 39160,
        "meta_element_set_no": 999,
        "meta_rev_at_epoch": 67307,
        "meta_bstar": 0.00023861728,
        "meta_mean_motion_dot": 1.231e-05,
        "meta_mean_motion_ddot": 0,
        "tle_line1": "1 39160U 13021B   25347.30460649  .00001231  00000+0  23862-3 0  9999",
        "tle_line2": "2 39160  97.9370  42.5592 0001288  79.1700 280.9648 14.64924843673071"
      },
      "geometry": {
        "type": "Point",
        "coordinates": [
          -140.93834664582937,
          -28.402257406160974
        ]
      }
    },
    {
      "type": "Feature",
      "properties": {
        "norad_id": 39227,
        "name": "ARIRANG-5 (KOMPSAT-5)",
        "group": "resource",
        "lat": 49.71793229097977,
        "lon": 1.5285877322676549,
        "alt_km": 548.0346009240047,
        "timestamp": "2025-12-14T03:55:52.450266+00:00",
        "meta_object_name": "ARIRANG-5 (KOMPSAT-5)",
        "meta_object_id": "2013-042A",
        "meta_epoch": "2025-12-13T06:36:24.470208",
        "meta_mean_motion": 15.04507556,
        "meta_eccentricity": 0.00035765,
        "meta_inclination": 97.6144,
        "meta_ra_of_asc_node": 171.5714,
        "meta_arg_of_pericenter": 53.6821,
        "meta_mean_anomaly": 306.4735,
        "meta_ephemeris_type": 0,
        "meta_classification_type": "U",
        "meta_norad_cat_id": 39227,
        "meta_element_set_no": 999,
        "meta_rev_at_epoch": 67590,
        "meta_bstar": 0.00022246447,
        "meta_mean_motion_dot": 3.055e-05,
        "meta_mean_motion_ddot": 0,
        "tle_line1": "1 39227U 13042A   25347.27528322  .00003055  00000+0  22246-3 0  9996",
        "tle_line2": "2 39227  97.6144 171.5714 0003576  53.6821 306.4735 15.04507556675901"
      },
      "geometry": {
        "type": "Point",
        "coordinates": [
          1.5285877322676549,
          49.71793229097977
        ]
      }
    },
    {
      "type": "Feature",
      "properties": {
        "norad_id": 39418,
        "name": "SKYSAT-A",
        "group": "resource",
        "lat": 1.0664136474465855,
        "lon": -141.5320500068703,
        "alt_km": 525.5060768130024,
        "timestamp": "2025-12-14T03:55:52.450276+00:00",
        "meta_object_name": "SKYSAT-A",
        "meta_object_id": "2013-066C",
        "meta_epoch": "2025-12-13T03:18:37.240128",
        "meta_mean_motion": 15.11610457,
        "meta_eccentricity": 0.00206646,
        "meta_inclination": 97.4113,
        "meta_ra_of_asc_node": 37.3343,
        "meta_arg_of_pericenter": 234.9675,
        "meta_mean_anomaly": 124.9617,
        "meta_ephemeris_type": 0,
        "meta_classification_type": "U",
        "meta_norad_cat_id": 39418,
        "meta_element_set_no": 999,
        "meta_rev_at_epoch": 66036,
        "meta_bstar": 0.00032538415,
        "meta_mean_motion_dot": 5.491e-05,
        "meta_mean_motion_ddot": 0,
        "tle_line1": "1 39418U 13066C   25347.13793102  .00005491  00000+0  32538-3 0  9990",
        "tle_line2": "2 39418  97.4113  37.3343 0020664 234.9675 124.9617 15.11610457660361"
      },
      "geometry": {
        "type": "Point",
        "coordinates": [
          -141.5320500068703,
          1.0664136474465855
        ]
      }
    },
    {
      "type": "Feature",
      "properties": {
        "norad_id": 39419,
        "name": "DUBAISAT-2",
        "group": "resource",
        "lat": -54.92884707362461,
        "lon": -10.736974814292239,
        "alt_km": 541.0129213590726,
        "timestamp": "2025-12-14T03:55:52.450287+00:00",
        "meta_object_name": "DUBAISAT-2",
        "meta_object_id": "2013-066D",
        "meta_epoch": "2025-12-13T05:53:14.445312",
        "meta_mean_motion": 15.08370473,
        "meta_eccentricity": 0.00106334,
        "meta_inclination": 97.4457,
        "meta_ra_of_asc_node": 337.637,
        "meta_arg_of_pericenter": 319.9426,
        "meta_mean_anomaly": 40.1018,
        "meta_ephemeris_type": 0,
        "meta_classification_type": "U",
        "meta_norad_cat_id": 39419,
        "meta_element_set_no": 999,
        "meta_rev_at_epoch": 65834,
        "meta_bstar": 0.00053624853,
        "meta_mean_motion_dot": 8.286e-05,
        "meta_mean_motion_ddot": 0,
        "tle_line1": "1 39419U 13066D   25347.24530608  .00008286  00000+0  53625-3 0  9998",
        "tle_line2": "2 39419  97.4457 337.6370 0010633 319.9426  40.1018 15.08370473658348"
      },
      "geometry": {
        "type": "Point",
        "coordinates": [
          -10.736974814292239,
          -54.92884707362461
        ]
      }
    },
    {
      "type": "Feature",
      "properties": {
        "norad_id": 39574,
        "name": "GPM-CORE",
        "group": "resource",
        "lat": -64.95604887550664,
        "lon": 117.19947009121603,
        "alt_km": 432.9728198377761,
        "timestamp": "2025-12-14T03:55:52.450297+00:00",
        "meta_object_name": "GPM-CORE",
        "meta_object_id": "2014-009C",
        "meta_epoch": "2025-12-13T05:00:39.083616",
        "meta_mean_motion": 15.44477433,
        "meta_eccentricity": 0.00098198,
        "meta_inclination": 64.9734,
        "meta_ra_of_asc_node": 211.1097,
        "meta_arg_of_pericenter": 245.299,
        "meta_mean_anomaly": 114.7128,
        "meta_ephemeris_type": 0,
        "meta_classification_type": "U",
        "meta_norad_cat_id": 39574,
        "meta_element_set_no": 999,
        "meta_rev_at_epoch": 66908,
        "meta_bstar": 0.00026911199,
        "meta_mean_motion_dot": 0.00012324,
        "meta_mean_motion_ddot": 0,
        "tle_line1": "1 39574U 14009C   25347.20878569  .00012324  00000+0  26911-3 0  9991",
        "tle_line2": "2 39574  64.9734 211.1097 0009819 245.2990 114.7128 15.44477433669087"
      },
      "geometry": {
        "type": "Point",
        "coordinates": [
          117.19947009121603,
          -64.95604887550664
        ]
      }
    },
    {
      "type": "Feature",
      "properties": {
        "norad_id": 39634,
        "name": "SENTINEL-1A",
        "group": "resource",
        "lat": 39.7112654482495,
        "lon": -13.477882718692065,
        "alt_km": 692.0160076638704,
        "timestamp": "2025-12-14T03:55:52.450308+00:00",
        "meta_object_name": "SENTINEL-1A",
        "meta_object_id": "2014-016A",
        "meta_epoch": "2025-12-13T06:21:12.206304",
        "meta_mean_motion": 14.59201434,
        "meta_eccentricity": 0.00012493,
        "meta_inclination": 98.1807,
        "meta_ra_of_asc_node": 352.4982,
        "meta_arg_of_pericenter": 83.6671,
        "meta_mean_anomaly": 276.4671,
        "meta_ephemeris_type": 0,
        "meta_classification_type": "U",
        "meta_norad_cat_id": 39634,
        "meta_element_set_no": 999,
        "meta_rev_at_epoch": 62290,
        "meta_bstar": 9.4860976e-05,
        "meta_mean_motion_dot": 4.01e-06,
        "meta_mean_motion_ddot": 0,
        "tle_line1": "1 39634U 14016A   25347.26472461  .00000401  00000+0  94861-4 0  9996",
        "tle_line2": "2 39634  98.1807 352.4982 0001249  83.6671 276.4671 14.59201434622905"
      },
      "geometry": {
        "type": "Point",
        "coordinates": [
          -13.477882718692065,
          39.7112654482495
        ]
      }
    },
    {
      "type": "Feature",
      "properties": {
        "norad_id": 39731,
        "name": "KAZEOSAT 1",
        "group": "resource",
        "lat": -71.06661064740894,
        "lon": 85.36568868694965,
        "alt_km": 759.7332191793093,
        "timestamp": "2025-12-14T03:55:52.450318+00:00",
        "meta_object_name": "KAZEOSAT 1",
        "meta_object_id": "2014-024A",
        "meta_epoch": "2025-12-13T08:17:09.937824",
        "meta_mean_motion": 14.42063911,
        "meta_eccentricity": 0.00011132,
        "meta_inclination": 98.3428,
        "meta_ra_of_asc_node": 59.2385,
        "meta_arg_of_pericenter": 96.1119,
        "meta_mean_anomaly": 264.0198,
        "meta_ephemeris_type": 0,
        "meta_classification_type": "U",
        "meta_norad_cat_id": 39731,
        "meta_element_set_no": 999,
        "meta_rev_at_epoch": 61177,
        "meta_bstar": 0.00018022483,
        "meta_mean_motion_dot": 5.49e-06,
        "meta_mean_motion_ddot": 0,
        "tle_line1": "1 39731U 14024A   25347.34525391  .00000549  00000+0  18022-3 0  9990",
        "tle_line2": "2 39731  98.3428  59.2385 0001113  96.1119 264.0198 14.42063911611777"
      },
      "geometry": {
        "type": "Point",
        "coordinates": [
          85.36568868694965,
          -71.06661064740894
        ]
      }
    }
  ]
}